[{"OBJECT_NAME":"LAPAN-A3","OBJECT_ID":"2016-040E","EPOCH":"2026-03-09T23:01:57.724896","MEAN_MOTION":15.3238951,"ECCENTRICITY":0.00109839,"INCLINATION":97.1488,"RA_OF_ASC_NODE":68.4254,"ARG_OF_PERICENTER":22.062,"MEAN_ANOMALY":338.1093,"EPHEMERIS_TYPE":0,"CLASSIFICATION_TYPE":"U","NORAD_CAT_ID":41603,"ELEMENT_SET_NO":999,"REV_AT_EPOCH":53961,"BSTAR":0.00017567445,"MEAN_MOTION_DOT":5.428e-5,"MEAN_MOTION_DDOT":0},{"OBJECT_NAME":"STARLINK-32882","OBJECT_ID":"2025-029R","EPOCH":"2026-03-09T17:13:16.718304","MEAN_MOTION":15.30177706,"ECCENTRICITY":9.004e-5,"INCLINATION":53.1598,"RA_OF_ASC_NODE":230.0671,"ARG_OF_PERICENTER":99.2402,"MEAN_ANOMALY":260.87,"EPHEMERIS_TYPE":0,"CLASSIFICATION_TYPE":"U","NORAD_CAT_ID":62963,"ELEMENT_SET_NO":999,"REV_AT_EPOCH":6135,"BSTAR":-5.4998068e-5,"MEAN_MOTION_DOT":-1.986e-5,"MEAN_MOTION_DDOT":0}]
